[{"OBJECT_NAME":"STARLINK-31775","OBJECT_ID":"2024-112Q","EPOCH":"2026-03-09T07:12:42.188256","MEAN_MOTION":15.3018723,"ECCENTRICITY":0.00013218,"INCLINATION":53.1601,"RA_OF_ASC_NODE":80.0421,"ARG_OF_PERICENTER":74.2211,"MEAN_ANOMALY":285.8936,"EPHEMERIS_TYPE":0,"CLASSIFICATION_TYPE":"U","NORAD_CAT_ID":60052,"ELEMENT_SET_NO":999,"REV_AT_EPOCH":9853,"BSTAR":1.4867204e-5,"MEAN_MOTION_DOT":8.1e-7,"MEAN_MOTION_DDOT":0},{"OBJECT_NAME":"CZ-6A DEB","OBJECT_ID":"2024-140FM","EPOCH":"2026-03-09T15:58:48.665856","MEAN_MOTION":15.24907574,"ECCENTRICITY":0.01008734,"INCLINATION":89.2247,"RA_OF_ASC_NODE":296.4931,"ARG_OF_PERICENTER":41.247,"MEAN_ANOMALY":319.6342,"EPHEMERIS_TYPE":0,"CLASSIFICATION_TYPE":"U","NORAD_CAT_ID":60786,"ELEMENT_SET_NO":999,"REV_AT_EPOCH":8558,"BSTAR":0.0022097808,"MEAN_MOTION_DOT":0.0006402,"MEAN_MOTION_DDOT":0}]
